0 SL-16 DEB
1 22359U 92093AY  13282.37274409  .00001255  00000-0  97454-3 0  6279
2 22359 070.7458 068.7685 0175867 223.8283 154.0414 13.87522111 46950
0 SL-16 DEB
1 22359U 92093AY  13285.77969103  .00001232  00000-0  95783-3 0  6298
2 22359 070.7464 061.8409 0175803 219.1151 251.9512 13.87530102 47425
0 SL-16 DEB
1 22359U 92093AY  13286.79029498  .00001374  00000-0  10639-2 0  6300
2 22359 070.7467 059.7861 0175742 217.7105 260.0104 13.87532339 47568
0 SL-16 DEB
1 22359U 92093AY  13287.79974698  .00001524  00000-0  11760-2 0  6316
2 22359 070.7469 057.7337 0175730 216.3221 262.3066 13.87536643 47707
0 SL-16 DEB
1 22359U 92093AY  13288.80940426  .00001592  00000-0  12267-2 0  6320
2 22359 070.7470 055.6810 0175700 214.9371 265.6426 13.87539864 47848
0 SL-16 DEB
1 22359U 92093AY  13290.30270789  .00001544  00000-0  11909-2 0  6336
2 22359 070.7471 052.6444 0175647 212.8666 164.8781 13.87545788 48053
0 SL-16 DEB
1 22359U 92093AY  13291.39202840  .00001538  00000-0  11865-2 0  6344
2 22359 070.7471 050.4296 0175569 211.3531 206.1933 13.87549044 48207
0 SL-16 DEB
1 22359U 92093AY  13292.78295086  .00001732  00000-0  13318-2 0  6354
2 22359 070.7471 047.6014 0175502 209.4297 314.0662 13.87553231 48398
0 SL-16 DEB
1 22359U 92093AY  13294.72124520  .00001736  00000-0  13347-2 0  6361
2 22359 070.7469 043.6599 0175428 206.7347 276.1948 13.87560805 48662
0 SL-16 DEB
1 22359U 92093AY  13295.73865325  .00001781  00000-0  13683-2 0  6372
2 22359 070.7470 041.5910 0175381 205.3301 318.3420 13.87564341 48800
